SatCatId,ObjectName,LaunchYear,OrbitalPeriod,LaunchMass,StatusCode,Inclination,Status,UcsData,OrbitClassEstimated,LaunchSiteCountry,Owner,UseType,Purpose,LaunchVehicleClass,TLE1,TLE2,MeanMotion,Eccentricity,OrbitClass
60049,STARLINK-11151 [DTC],2024,91.74,-1.0,+,53.16,Active,0,LEO,USA,USA,Unknown,Unknown,Unknown,1 60049U 24112M   24324.07600295  .00000193  00000+0  64507-5 0  9992,2 60049  53.1592  90.6411 0000947 113.3043 246.8075 15.69713365 26288,15.69713365,9.47e-05,LEO
60050,STARLINK-11137 [DTC],2024,91.74,-1.0,+,53.16,Active,0,LEO,USA,USA,Unknown,Unknown,Unknown,1 60050U 24112N   24324.32577825  .00000923  00000+0  12468-4 0  9993,2 60050  53.1589  89.3513 0000578 105.3275 254.7806 15.69709401 26323,15.69709401,5.78e-05,LEO
60051,STARLINK-31811,2024,94.1,-1.0,+,53.16,Active,0,LEO,USA,USA,Unknown,Unknown,Unknown,1 60051U 24112P   24324.47155880  .00001345  00000+0  57544-4 0  9996,2 60051  53.1609 125.6835 0001129  80.1372 279.9756 15.30199058 25836,15.30199058,0.0001129,LEO
60052,STARLINK-31775,2024,94.1,-1.0,+,53.16,Active,0,LEO,USA,USA,Unknown,Unknown,Unknown,1 60052U 24112Q   24323.74360532  .00001374  00000+0  58503-4 0  9996,2 60052  53.1593 128.9686 0001359  93.0216 267.0941 15.30194975 25729,15.30194975,0.0001359,LEO
60053,STARLINK-31793,2024,94.1,-1.0,+,53.16,Active,0,LEO,USA,USA,Unknown,Unknown,Unknown,1 60053U 24112R   24323.88056562  .00005400  00000+0  19422-3 0  9997,2 60053  53.1605 128.4032 0000622  83.3678 276.7393 15.30214684 25740,15.30214684,6.22e-05,LEO
60054,STARLINK-31735,2024,94.11,-1.0,+,53.16,Active,0,LEO,USA,USA,Unknown,Unknown,Unknown,1 60054U 24112S   24324.45573771  .00000703  00000+0  35868-4 0  9992,2 60054  53.1609 125.5890 0001316  91.4626 268.6525 15.30197686 25838,15.30197686,0.0001316,LEO
60055,STARLINK-31788,2024,94.11,-1.0,+,53.16,Active,0,LEO,USA,USA,Unknown,Unknown,Unknown,1 60055U 24112T   24324.45256946  .00012873  00000+0  44593-3 0  9990,2 60055  53.1605 125.5687 0000242 357.3867   2.7132 15.30203871 25832,15.30203871,2.42e-05,LEO
60056,STARLINK-31825,2024,94.11,-1.0,+,53.16,Active,0,LEO,USA,USA,Unknown,Unknown,Unknown,1 60056U 24112U   24324.45889737  .00007059  00000+0  25019-3 0  9993,2 60056  53.1593 125.6115 0001398  92.0320 268.0840 15.30207617 25831,15.30207617,0.0001398,LEO
60057,STARLINK-31437,2024,94.11,-1.0,+,53.16,Active,0,LEO,USA,USA,Unknown,Unknown,Unknown,1 60057U 24112V   24324.46523443 -.00000649  00000+0 -98043-5 0  9993,2 60057  53.1618 125.6438 0000987 106.8263 253.2846 15.30194269 25831,15.30194269,9.87e-05,LEO
60059,STARLINK-11181 [DTC],2024,91.74,-1.0,+,53.16,Active,0,LEO,USA,USA,Unknown,Unknown,Unknown,1 60059U 24113A   24324.42500403  .00010838  00000+0  94128-4 0  9991,2 60059  53.1567  14.2339 0001397  87.0993 273.0185 15.69727867 24917,15.69727867,0.0001397,LEO
60060,STARLINK-11176 [DTC],2024,91.74,-1.0,+,53.16,Active,0,LEO,USA,USA,Unknown,Unknown,Unknown,1 60060U 24113B   24324.54743814  .00108042  00000+0  88335-3 0  9998,2 60060  53.1569  13.5730 0000634  56.1944 303.9134 15.69756907 24930,15.69756907,6.34e-05,LEO
60061,STARLINK-11167 [DTC],2024,91.74,-1.0,+,53.16,Active,0,LEO,USA,USA,Unknown,Unknown,Unknown,1 60061U 24113C   24324.16051977  .00010227  00000+0  89133-4 0  9994,2 60061  53.1579  15.4236 0001221  89.6468 270.4689 15.69719539 25179,15.69719539,0.0001221,LEO
60062,STARLINK-11166 [DTC],2024,91.74,-1.0,+,53.16,Active,0,LEO,USA,USA,Unknown,Unknown,Unknown,1 60062U 24113D   24324.41029958  .00002292  00000+0  23791-4 0  9998,2 60062  53.1585  14.1364 0000861  75.8014 284.3100 15.69688940 24912,15.6968894,8.61e-05,LEO
60063,STARLINK-11165 [DTC],2024,91.74,-1.0,+,53.16,Active,0,LEO,USA,USA,Unknown,Unknown,Unknown,1 60063U 24113E   24323.45034374  .00014182  00000+0  12165-3 0  9993,2 60063  53.1571  18.8093 0001598 112.6208 247.4979 15.69723721 24765,15.69723721,0.0001598,LEO
60064,STARLINK-11169 [DTC],2024,91.74,-1.0,+,53.16,Active,0,LEO,USA,USA,Unknown,Unknown,Unknown,1 60064U 24113F   24324.14580657 -.00000658  00000+0 -57305-6 0  9994,2 60064  53.1573  15.3249 0001374  74.7262 285.3908 15.69704778 24879,15.69704778,0.0001374,LEO
60065,STARLINK-11102 [DTC],2024,91.73,-1.0,+,53.16,Active,0,LEO,USA,USA,Unknown,Unknown,Unknown,1 60065U 24113G   24324.14089891  .00001132  00000+0  14203-4 0  9993,2 60065  53.1572  15.2967 0001579  55.9218 304.1949 15.69711645 24870,15.69711645,0.0001579,LEO
60066,STARLINK-11141 [DTC],2024,91.74,-1.0,+,53.16,Active,0,LEO,USA,USA,Unknown,Unknown,Unknown,1 60066U 24113H   24324.51799669 -.00007608  00000+0 -57951-4 0  9999,2 60066  53.1566  13.3764 0000958  74.4285 285.6839 15.69729361 24930,15.69729361,9.58e-05,LEO
60067,STARLINK-11153 [DTC],2024,91.74,-1.0,+,53.16,Active,0,LEO,USA,USA,Unknown,Unknown,Unknown,1 60067U 24113J   24323.87651151  .00008082  00000+0  71512-4 0  9995,2 60067  53.1571  17.2156 0001528 103.6393 256.4795 15.69706331 24821,15.69706331,0.0001528,LEO
60068,STARLINK-11170 [DTC],2024,91.73,-1.0,+,53.16,Active,0,LEO,USA,USA,Unknown,Unknown,Unknown,1 60068U 24113K   24324.57196356  .00043398  00000+0  36071-3 0  9994,2 60068  53.1565  13.7322 0000906 324.9894  35.1064 15.69742096 24935,15.69742096,9.06e-05,LEO
60069,STARLINK-11171 [DTC],2024,91.74,-1.0,+,53.16,Active,0,LEO,USA,USA,Unknown,Unknown,Unknown,1 60069U 24113L   24323.35734524  .00011642  00000+0  10082-3 0  9996,2 60069  53.1567  19.6620 0001443  90.0312 270.0871 15.69710110 24744,15.6971011,0.0001443,LEO
60070,STARLINK-11186 [DTC],2024,91.73,-1.0,+,53.16,Active,0,LEO,USA,USA,Unknown,Unknown,Unknown,1 60070U 24113M   24324.43481724  .00044220  00000+0  36767-3 0  9995,2 60070  53.1562  14.2933 0001176  84.4919 275.6232 15.69725273 25325,15.69725273,0.0001176,LEO
60071,STARLINK-11184 [DTC],2024,91.74,-1.0,+,53.16,Active,0,LEO,USA,USA,Unknown,Unknown,Unknown,1 60071U 24113N   24324.17524486  .00008545  00000+0  75343-4 0  9994,2 60071  53.1575  15.5554 0001619 110.2565 249.8627 15.69701830 24873,15.6970183,0.0001619,LEO
60077,STARLINK-32032,2024,94.1,-1.0,+,53.16,Active,0,LEO,USA,USA,Unknown,Unknown,Unknown,1 60077U 24113U   24324.52239586 -.00000366  00000+0 -24865-6 0  9993,2 60077  53.1613  45.9426 0001025  51.2127 308.8965 15.30194828 24485,15.30194828,0.0001025,LEO
60079,KINEIS-1B,2024,97.39,-1.0,+,98.02,Active,0,LEO,New Zealand,France,Unknown,Unknown,Unknown,1 60079U 24114A   24324.50380655  .00002072  00000+0  29057-3 0  9997,2 60079  98.0228 339.7373 0003416 135.9391 224.2093 14.78550116 22412,14.78550116,0.0003416,LEO
60081,KINEIS-1C,2024,97.42,-1.0,+,98.02,Active,0,LEO,New Zealand,France,Unknown,Unknown,Unknown,1 60081U 24114C   24324.54883024  .00002049  00000+0  29003-3 0  9997,2 60081  98.0229 339.6785 0000715 140.7440 219.3822 14.78174411 22404,14.78174411,7.15e-05,LEO
60082,KINEIS-1D,2024,97.64,-1.0,+,98.02,Active,0,LEO,New Zealand,France,Unknown,Unknown,Unknown,1 60082U 24114D   24324.52487175  .00001656  00000+0  25478-3 0  9998,2 60082  98.0230 339.2400 0000785 168.4892 191.6335 14.74812341 22376,14.74812341,7.85e-05,LEO
60083,KINEIS-1E,2024,97.42,-1.0,+,98.02,Active,0,LEO,New Zealand,France,Unknown,Unknown,Unknown,1 60083U 24114E   24324.47018751  .00001945  00000+0  27556-3 0  9993,2 60083  98.0230 339.6268 0001748 116.2107 243.9283 14.78192145 22395,14.78192145,0.0001748,LEO
60084,KINEIS-1A,2024,97.42,-1.0,+,98.02,Active,0,LEO,New Zealand,France,Unknown,Unknown,Unknown,1 60084U 24114F   24324.51097492  .00001868  00000+0  26504-3 0  9994,2 60084  98.0230 339.7310 0002920 149.8029 210.3350 14.78168480 22403,14.7816848,0.000292,LEO
60086,ASTRA 1P (SES-24),2024,1436.12,-1.0,+,0.01,Active,0,GSO,USA,SES,Unknown,Unknown,Unknown,1 60086U 24115A   24324.09007859 -.00000075  00000+0  00000+0 0  9997,2 60086   0.0121 330.6661 0001784 327.4433 143.4511  1.00270518  1427,1.00270518,0.0001784,GEO
60088,CATCH-1,2024,97.2,-1.0,+,28.99,Active,0,LEO,PRC,China,Unknown,Unknown,Unknown,1 60088U 24116A   24324.61184246  .00002280  00000+0  26942-3 0  9990,2 60088  28.9935 141.9393 0004299 323.9040  36.1262 14.81472251 22262,14.81472251,0.0004299,LEO
60089,SVOM,2024,97.24,-1.0,+,28.99,Active,0,LEO,PRC,China,Unknown,Unknown,Unknown,1 60089U 24116B   24324.58447983  .00002389  00000+0  28726-3 0  9999,2 60089  28.9938 142.6992 0005397 308.0244  51.9862 14.80866272 22258,14.80866272,0.0005397,LEO
60091,STARLINK-31441,2024,94.11,-1.0,+,53.16,Active,0,LEO,USA,USA,Unknown,Unknown,Unknown,1 60091U 24117A   24324.36810706  .00010223  00000+0  35656-3 0  9992,2 60091  53.1587  84.8701 0001342  72.0340 288.0807 15.30221586 24115,15.30221586,0.0001342,LEO
60092,STARLINK-32044,2024,94.11,-1.0,+,53.16,Active,0,LEO,USA,USA,Unknown,Unknown,Unknown,1 60092U 24117B   24324.34806523 -.00000063  00000+0  10009-4 0  9991,2 60092  53.1598  84.7446 0001549  95.8938 264.2239 15.30201415 24112,15.30201415,0.0001549,LEO
60093,STARLINK-31239,2024,94.1,-1.0,+,53.16,Active,0,LEO,USA,USA,Unknown,Unknown,Unknown,1 60093U 24117C   24324.33551180  .00001801  00000+0  72933-4 0  9991,2 60093  53.1604  85.3827 0000962  93.6892 266.4219 15.30195829 24106,15.30195829,9.62e-05,LEO
60094,STARLINK-32007,2024,94.11,-1.0,+,53.16,Active,0,LEO,USA,USA,Unknown,Unknown,Unknown,1 60094U 24117D   24324.06053651 -.00000444  00000+0 -28784-5 0  9992,2 60094  53.1606  86.5110 0000968  92.7813 267.3299 15.30193435 24060,15.30193435,9.68e-05,LEO
60095,STARLINK-32028,2024,94.11,-1.0,+,53.16,Active,0,LEO,USA,USA,Unknown,Unknown,Unknown,1 60095U 24117E   24324.31229620  .00001523  00000+0  63528-4 0  9993,2 60095  53.1600  85.2342 0001364  82.6671 277.4485 15.30196803 24105,15.30196803,0.0001364,LEO
60096,STARLINK-32016,2024,94.1,-1.0,+,53.16,Active,0,LEO,USA,USA,Unknown,Unknown,Unknown,1 60096U 24117F   24324.33129664 -.00000239  00000+0  40446-5 0  9992,2 60096  53.1601  85.3563 0001235  88.6890 271.4252 15.30186959 24106,15.30186959,0.0001235,LEO
